ORBCOMM FM115           
1 41186U 15081H   24276.14147095  .00004988  00000+0  10338-2 0  9992
2 41186  46.9974 185.8970 0000913 298.4051  61.6743 14.61325995470015
ORBCOMM FM108           
1 41187U 15081J   24276.39510070  .00005147  00000+0  11674-2 0  9999
2 41187  47.0030 243.6191 0002038 213.4507 146.6249 14.57099337469186
ORBCOMM FM117           
1 41188U 15081K   24276.29277101  .00005299  00000+0  12007-2 0  9993
2 41188  46.9990 242.9503 0002810 225.7438 134.3217 14.57101930469212
ORBCOMM FM116           
1 41189U 15081L   24276.41964990  .00005571  00000+0  12596-2 0  9993
2 41189  47.0020 332.1903 0003132 292.7867  67.2687 14.57135253468043
